D-STAR ONE (LIGHTSAT)   
1 44393U 19038H   21331.18522457  .00002645  00000+0  14727-3 0  9998
2 44393  97.6107 295.2963 0022753 109.7632 250.6056 15.14317874132403
AMGU-1 (AMURSAT)        
1 44394U 19038J   21331.59691295  .00001961  00000+0  11011-3 0  9994
2 44394  97.6082 295.6475 0022574 108.3740 251.9949 15.14330853132467
DOT-1                   
1 44399U 19038P   21331.33444669  .00001561  00000+0  91175-4 0  9998
2 44399  97.6135 294.6588 0025614 113.6473 246.7451 15.13167547132361
SOKRAT                  
1 44404U 19038U   21331.56850310  .00002820  00000+0  15732-3 0  9997
2 44404  97.6096 295.3456 0022972 110.2271 250.1433 15.14179511132442
LUCKY-7                 
1 44406U 19038W   21331.12598268  .00001554  00000+0  89962-4 0  9992
2 44406  97.6126 294.7209 0025523 107.1868 253.2160 15.13480646132342
D-STAR ONE (EXOCONNECT) 
1 44410U 19038AA  21331.36590699  .00003558  00000+0  19140-3 0  9999
2 44410  97.6062 295.5817 0022606 107.6497 252.7206 15.15310898132452
NARSSCUBE-2             
1 44415U 19022E   21331.50429964  .00002016  00000+0  76392-4 0  9990
2 44415  51.6430  12.8595 0011681  50.6838 309.5177 15.31858353129136
KRAKSAT                 
1 44427U 98067QM  21331.46442861  .00109264  00000+0  44400-3 0  9992
2 44427  51.6361 183.8623 0005784 172.7062 256.5801 15.85368167137148
NARSSCUBE-1             
1 44792U 98067QX  21331.33904919  .00240146  33318-4  63910-3 0  9995
2 44792  51.6283 193.5235 0007605 195.5813 164.4962 15.94079279115238
DUCHIFAT-3              
1 44854U 19089C   21331.38918837  .00000949  00000+0  81558-4 0  9991
2 44854  36.9645 216.8741 0008310   8.0981 351.9900 14.99817587107573
OPS-SAT                 
1 44878U 19092F   21331.20309536  .00002037  00000+0  10580-3 0  9998
2 44878  97.4753 152.4363 0012816 330.1589  29.8912 15.17178352107503
FLORIPASAT-1            
1 44885U 19093G   21331.50168555  .00000561  00000+0  76379-4 0  9993
2 44885  97.9155  49.3007 0015747 127.5852 232.6795 14.82480827104928
HUSKYSAT-1 (HO-107)     
1 45119U 19071J   21331.60160399  .00006814  00000+0  19214-3 0  9990
2 45119  51.6416 324.9439 0010739 154.7419 205.4091 15.37553653102254
G-SAT                   
1 45597U 98067RK  21331.21987910  .00029707  00000+0  29423-3 0  9994
2 45597  51.6367 229.0222 0004084 175.9350 184.1679 15.65561268 90038
QUETZAL-1               
1 45598U 98067RL  21331.42506216  .00049175  00000+0  37692-3 0  9992
2 45598  51.6356 222.8655 0003857 157.2693 202.8476 15.71587812 90064
BY70-2                  
1 45857U 20042B   21331.33981739  .00001919  00000+0  27540-3 0  9990
2 45857  97.9732  45.3581 0011592  55.8735 304.3581 14.77611096 75597
SALSAT                  
1 46495U 20068K   21331.57701784  .00001498  00000+0  11365-3 0  9993
2 46495  97.7051 268.2265 0015764 239.4212 120.5458 15.03682519 63842
NETSAT-4                
1 46504U 20068U   21331.29442331  .00001077  00000+0  85942-4 0  9999
2 46504  97.7048 266.9111 0010727 287.6157  72.3896 15.02390728 63680
NETSAT-3                
1 46505U 20068V   21331.57141275  .00001667  00000+0  13051-3 0  9990
2 46505  97.7008 267.1324 0011113 296.5588  63.4519 15.02353366 63739
NETSAT-1                
1 46506U 20068W   21331.58173291  .00001311  00000+0  10384-3 0  9997
2 46506  97.7006 267.1012 0010077 310.7833  49.2541 15.02295081 63738
NETSAT-2                
1 46507U 20068X   21331.58798260  .00000618  00000+0  51409-4 0  9990
2 46507  97.7006 267.1035 0010142 322.9458  37.1106 15.02265177 63685
BY70-3                  
1 46839U 20079N   21331.55582397  .00005118  00000+0  15132-3 0  9991
2 46839  97.2249  42.1883 0006608 356.2452 121.5378 15.35342336 59217
SPOC                    
1 46921U 98067RR  21331.47902338  .00020076  00000+0  25374-3 0  9996
2 46921  51.6391 240.5527 0001140  73.8610 286.2508 15.59522347 60252
BOBCAT-1                
1 46922U 98067RS  21331.25867035  .00031257  00000+0  32398-3 0  9994
2 46922  51.6397 236.8648 0002345 106.1906 253.9347 15.64390393 60248
NEUTRON-1               
1 46923U 98067RT  21331.37999027  .00017954  00000+0  22889-3 0  9997
2 46923  51.6398 241.3900 0001649  74.3990 285.7185 15.59378767 60267
1998-067RU              
1 46924U 98067RU  21331.42470770  .00161194  00000+0  72887-3 0  9992
2 46924  51.6294 223.5563 0006350 155.4122 204.7185 15.82948897 60479
DESCENT                 
1 46927U 98067RX  21331.31892909  .00017783  00000+0  22601-3 0  9998
2 46927  51.6398 241.7291 0002370  72.0769 288.0482 15.59468255 60166
UVSQ-SAT                
1 47438U 21006AB  21331.56543353  .00001899  00000+0  10911-3 0  9990
2 47438  97.4677  29.7339 0011086 252.4321 107.5699 15.13670476 46722
SOMP2B                  
1 47445U 21006AJ  21331.39992314  .00001485  00000+0  86576-4 0  9996
2 47445  97.4651  29.3832 0010693 257.4271 102.5765 15.13478671 46696
WARP-01                 
1 47924U 98067SA  21330.50447189  .00028280  00000+0  36623-3 0  9995
2 47924  51.6386 252.0114 0003444  37.6047 322.5186 15.58655110 40002
RSP-01                  
1 47925U 98067SB  21331.47791719  .00021305  00000+0  29515-3 0  9997
2 47925  51.6401 248.0305 0000801 134.7027 225.4030 15.57026938 40120
TAUSAT-1                
1 47926U 98067SC  21331.59248796  .00030841  00000+0  39176-3 0  9992
2 47926  51.6389 245.7821 0000912 165.0861 195.0159 15.59123357 40151
TSURU                   
1 47927U 98067SD  21331.07204212  .00018683  00000+0  26673-3 0  9999
2 47927  51.6405 250.5691 0000586 143.0080 217.0952 15.56305970 40051
STARS-EC                
1 47928U 98067SE  21331.46695316  .00027345  00000+0  34824-3 0  9994
2 47928  51.6394 247.1956 0003959  43.5103 316.6202 15.59117286 40117
MAYA-2                  
1 47929U 98067SF  21331.19613789  .00016956  00000+0  24266-3 0  9994
2 47929  51.6396 249.8959 0000638 156.3486 203.7535 15.56317052 40036
HIROGARI (OPUSAT-II)    
1 47930U 98067SG  21331.26644830  .00030460  00000+0  37693-3 0  9999
2 47930  51.6393 247.3686 0001904 137.0432 223.0710 15.59820724 40116
GUARANISAT-1            
1 47931U 98067SH  21331.19302617  .00017213  00000+0  24587-3 0  9995
2 47931  51.6403 249.8797 0000639 161.7321 198.3694 15.56356882 40070
DIY-1 (ARDUIQUBE)       
1 47963U 21022AH  21331.49035668  .00004323  00000+0  28043-3 0  9998
2 47963  97.5445 230.9079 0020544 104.8250 255.5256 15.08432300 36465
